QIANFAN-57              
1 62787U 25016C   26027.22648783  .00000157  00000+0  22459-3 0  9998
2 62787  88.9758  98.5073 0002218  87.2535 272.8870 13.50991877 53341
QIANFAN-58              
1 62788U 25016D   26027.27168181  .00000146  00000+0  20724-3 0  9994
2 62788  88.9727  98.3202 0013537 203.4376 156.6160 13.50993754 53393
QIANFAN-59              
1 62789U 25016E   26027.22234556  .00000158  00000+0  22612-3 0  9991
2 62789  88.9751  98.4098 0013754 207.7039 152.3381 13.50989835 53381
QIANFAN-60              
1 62790U 25016F   26027.25521678  .00000142  00000+0  20153-3 0  9991
2 62790  88.9732  98.3691 0015428 204.7725 155.2687 13.50987868 53373
QIANFAN-61              
1 62791U 25016G   26027.21411206  .00000145  00000+0  20551-3 0  9998
2 62791  88.9800  98.5673 0014366 203.7479 156.3011 13.50989227 53382
QIANFAN-62              
1 62792U 25016H   26027.21822675  .00000156  00000+0  22340-3 0  9995
2 62792  88.9746  98.4107 0015731 204.7729 155.2668 13.50991878 53379
QIANFAN-63              
1 62793U 25016J   26027.24290183  .00000153  00000+0  21758-3 0  9991
2 62793  88.9753  98.3628 0015611 210.2065 149.8187 13.50990135 53412
QIANFAN-64              
1 62794U 25016K   26027.28405082  .00000137  00000+0  19398-3 0  9991
2 62794  88.9739  98.3264 0013807 201.8095 158.2470 13.50988557 53411
